ISS (ZARYA)             
1 25544U 98067A   26090.84291376  .00010633  00000+0  20301-3 0  9998
2 25544  51.6336 322.8401 0006220 256.5772 103.4524 15.48686199559768
POISK                   
1 36086U 09060A   26091.10102623  .00008862  00000+0  17059-3 0  9999
2 36086  51.6334 321.5639 0006224 257.9417 102.0874 15.48690056559617
CSS (TIANHE)            
1 48274U 21035A   26090.84865758  .00027797  00000+0  31477-3 0  9990
2 48274  41.4668  73.2165 0003682  84.3022 275.8236 15.61775142281078
ISS (NAUKA)             
1 49044U 21066A   26091.10102623  .00008862  00000+0  17059-3 0  9997
2 49044  51.6334 321.5639 0006224 257.9417 102.0874 15.48690056559659
FREGAT DEB              
1 49271U 11037PF  26091.08231822  .00011281  00000+0  16179-1 0  9996
2 49271  51.6436 233.5133 0958653 110.7471 259.8700 12.40824911215479
CSS (WENTIAN)           
1 53239U 22085A   26090.84865758  .00027797  00000+0  31477-3 0  9993
2 53239  41.4668  73.2165 0003682  84.3022 275.8236 15.61775142281334
CSS (MENGTIAN)          
1 54216U 22143A   26090.84865758  .00027797  00000+0  31477-3 0  9994
2 54216  41.4668  73.2165 0003682  84.3022 275.8236 15.61775142281330
TIANZHOU-9              
1 64786U 25149A   26090.84865758  .00027797  00000+0  31477-3 0  9996
2 64786  41.4668  73.2165 0003682  84.3022 275.8236 15.61775142281333
PROGRESS-MS 32          
1 65586U 25204A   26090.52027159  .00011565  00000+0  22010-3 0  9996
2 65586  51.6339 324.4353 0006210 255.4271 104.6029 15.48680190554501
YOTSUBA-KULOVER         
1 65941U 98067XN  26090.87808049  .00468364  98467-4  12276-2 0  9995
2 65941  51.6165 301.1906 0006827 240.2535 119.7793 15.94260601 27027
BOTAN                   
1 65943U 98067XQ  26090.01293832  .00437127  84923-4  12667-2 0  9990
2 65943  51.6201 305.9446 0006756 227.9633 132.0799 15.92367740 26880
HRC MONOBLOCK CAMERA    
1 66052U 98067XR  26091.00856420  .00064086  00000+0  64935-3 0  9995
2 66052  51.6275 312.6913 0003828 200.7810 159.3030 15.64633042 25889
